start=new Date('2021-11-22T00:00:00.000Z').valueOf();
sats=[{"MEAN_ANOMALY":"280.2214","TIME_SYSTEM":"UTC","TLE_LINE2":"2 46117  53.0546 140.9378 0001825  79.8980 280.2214 15.06389883 69839","MEAN_MOTION":"15.06389883","EPOCH":"2021-11-21T12:18:49.548672","OBJECT_TYPE":"PAYLOAD","INCLINATION":"53.0546","APOAPSIS":"548.508","CENTER_NAME":"EARTH","MEAN_MOTION_DOT":"0.00000628","PERIOD":"95.593","COUNTRY_CODE":"US","BSTAR":"0.00006108400000","LAUNCH_DATE":"2020-08-18","REV_AT_EPOCH":"6983","MEAN_MOTION_DDOT":"0.0000000000000","OBJECT_NAME":"STARLINK-1585","RA_OF_ASC_NODE":"140.9378","TLE_LINE1":"1 46117U 20057A   21325.51307348  .00000628  00000-0  61084-4 0  9996","RCS_SIZE":"LARGE","REF_FRAME":"TEME","OBJECT_ID":"2020-057A","ARG_OF_PERICENTER":"79.8980","SITE":"AFETR","CLASSIFICATION_TYPE":"U","EPHEMERIS_TYPE":"0","PERIAPSIS":"545.981","ECCENTRICITY":"0.00018250","MEAN_ELEMENT_THEORY":"SGP4","SEMIMAJOR_AXIS":"6925.380","DECAY_DATE":null,"GP_ID":"190201546","NORAD_CAT_ID":"46117","ELEMENT_SET_NO":"999","FILE":"3220686"},{"MEAN_ELEMENT_THEORY":"SGP4","ECCENTRICITY":"0.00017510","DECAY_DATE":null,"SEMIMAJOR_AXIS":"6925.393","GP_ID":"190211073","NORAD_CAT_ID":"46118","ELEMENT_SET_NO":"999","FILE":"3220908","OBJECT_ID":"2020-057B","ARG_OF_PERICENTER":"79.7068","SITE":"AFETR","CLASSIFICATION_TYPE":"U","PERIAPSIS":"546.045","EPHEMERIS_TYPE":"0","BSTAR":"0.00007053200000","COUNTRY_CODE":"US","LAUNCH_DATE":"2020-08-18","MEAN_MOTION_DDOT":"0.0000000000000","OBJECT_NAME":"STARLINK-1588","REV_AT_EPOCH":"7026","RA_OF_ASC_NODE":"159.4041","TLE_LINE1":"1 46118U 20057B   21325.85401528  .00000769  00000-0  70532-4 0  9993","REF_FRAME":"TEME","RCS_SIZE":"LARGE","TIME_SYSTEM":"UTC","MEAN_ANOMALY":"280.4118","MEAN_MOTION":"15.06385481","TLE_LINE2":"2 46118  53.0527 159.4041 0001751  79.7068 280.4118 15.06385481 70269","EPOCH":"2021-11-21T20:29:46.920192","OBJECT_TYPE":"PAYLOAD","INCLINATION":"53.0527","MEAN_MOTION_DOT":"0.00000769","APOAPSIS":"548.471","CENTER_NAME":"EARTH","PERIOD":"95.593"},{"CLASSIFICATION_TYPE":"U","PERIAPSIS":"545.998","EPHEMERIS_TYPE":"0","ARG_OF_PERICENTER":"78.5870","OBJECT_ID":"2020-057C","SITE":"AFETR","NORAD_CAT_ID":"46119","GP_ID":"190202547","FILE":"3220686","ELEMENT_SET_NO":"999","DECAY_DATE":null,"SEMIMAJOR_AXIS":"6925.384","MEAN_ELEMENT_THEORY":"SGP4","ECCENTRICITY":"0.00018060","MEAN_MOTION_DOT":"0.00000771","CENTER_NAME":"EARTH","APOAPSIS":"548.499","INCLINATION":"53.0541","OBJECT_TYPE":"PAYLOAD","PERIOD":"95.593","TLE_LINE2":"2 46119  53.0541 160.6440 0001806  78.5870 281.5321 15.06388563 70826","MEAN_MOTION":"15.06388563","TIME_SYSTEM":"UTC","MEAN_ANOMALY":"281.5321","EPOCH":"2021-11-21T13:51:41.887296","RA_OF_ASC_NODE":"160.6440","MEAN_MOTION_DDOT":"0.0000000000000","OBJECT_NAME":"STARLINK-1593","REV_AT_EPOCH":"7082","REF_FRAME":"TEME","RCS_SIZE":"LARGE","TLE_LINE1":"1 46119U 20057C   21325.57756814  .00000771  00000-0  70679-4 0  9999","BSTAR":"0.00007067900000","COUNTRY_CODE":"US","LAUNCH_DATE":"2020-08-18"},{"OBJECT_ID":"2020-057D","ARG_OF_PERICENTER":"72.6995","SITE":"AFETR","CLASSIFICATION_TYPE":"U","PERIAPSIS":"545.855","EPHEMERIS_TYPE":"0","MEAN_ELEMENT_THEORY":"SGP4","ECCENTRICITY":"0.00020230","DECAY_DATE":null,"SEMIMAJOR_AXIS":"6925.391","GP_ID":"190206810","NORAD_CAT_ID":"46120","ELEMENT_SET_NO":"999","FILE":"3220713","TIME_SYSTEM":"UTC","MEAN_ANOMALY":"287.4215","MEAN_MOTION":"15.06386166","TLE_LINE2":"2 46120  53.0538 159.8127 0002023  72.6995 287.4215 15.06386166 70252","EPOCH":"2021-11-21T18:17:04.953696","INCLINATION":"53.0538","OBJECT_TYPE":"PAYLOAD","MEAN_MOTION_DOT":"0.00000305","CENTER_NAME":"EARTH","APOAPSIS":"548.657","PERIOD":"95.593","BSTAR":"0.00003937300000","COUNTRY_CODE":"US","LAUNCH_DATE":"2020-08-18","MEAN_MOTION_DDOT":"0.0000000000000","OBJECT_NAME":"STARLINK-1601","REV_AT_EPOCH":"7025","RA_OF_ASC_NODE":"159.8127","TLE_LINE1":"1 46120U 20057D   21325.76186289  .00000305  00000-0  39373-4 0  9994","REF_FRAME":"TEME","RCS_SIZE":"LARGE"},{"RA_OF_ASC_NODE":"141.1463","REV_AT_EPOCH":"6982","OBJECT_NAME":"STARLINK-1602","MEAN_MOTION_DDOT":"0.0000000000000","RCS_SIZE":"LARGE","REF_FRAME":"TEME","TLE_LINE1":"1 46121U 20057E   21325.46515422  .00000702  00000-0  66041-4 0  9990","COUNTRY_CODE":"US","BSTAR":"0.00006604100000","LAUNCH_DATE":"2020-08-18","APOAPSIS":"548.479","CENTER_NAME":"EARTH","MEAN_MOTION_DOT":"0.00000702","OBJECT_TYPE":"PAYLOAD","INCLINATION":"53.0539","PERIOD":"95.592","TLE_LINE2":"2 46121  53.0539 141.1463 0001814  69.4657 290.6526 15.06397067 69821","MEAN_MOTION":"15.06397067","MEAN_ANOMALY":"290.6526","TIME_SYSTEM":"UTC","EPOCH":"2021-11-21T11:09:49.324608","NORAD_CAT_ID":"46121","GP_ID":"190202047","FILE":"3220686","ELEMENT_SET_NO":"999","SEMIMAJOR_AXIS":"6925.358","DECAY_DATE":null,"ECCENTRICITY":"0.00018140","MEAN_ELEMENT_THEORY":"SGP4","CLASSIFICATION_TYPE":"U","EPHEMERIS_TYPE":"0","PERIAPSIS":"545.966","ARG_OF_PERICENTER":"69.4657","OBJECT_ID":"2020-057E","SITE":"AFETR"},{"FILE":"3220686","ELEMENT_SET_NO":"999","NORAD_CAT_ID":"46122","GP_ID":"190202798","DECAY_DATE":null,"SEMIMAJOR_AXIS":"6925.360","MEAN_ELEMENT_THEORY":"SGP4","ECCENTRICITY":"0.00016620","PERIAPSIS":"546.074","EPHEMERIS_TYPE":"0","CLASSIFICATION_TYPE":"U","SITE":"AFETR","ARG_OF_PERICENTER":"79.5196","OBJECT_ID":"2020-057F","REF_FRAME":"TEME","RCS_SIZE":"LARGE","TLE_LINE1":"1 46122U 20057F   21325.47437592  .00000497  00000-0  52239-4 0  9998","RA_OF_ASC_NODE":"121.0964","MEAN_MOTION_DDOT":"0.0000000000000","OBJECT_NAME":"STARLINK-1604","REV_AT_EPOCH":"7136","LAUNCH_DATE":"2020-08-18","BSTAR":"0.00005223900000","COUNTRY_CODE":"US","PERIOD":"95.592","MEAN_MOTION_DOT":"0.00000497","CENTER_NAME":"EARTH","APOAPSIS":"548.376","INCLINATION":"53.0534","OBJECT_TYPE":"PAYLOAD","EPOCH":"2021-11-21T11:23:06.079488","MEAN_MOTION":"15.06396264","TLE_LINE2":"2 46122  53.0534 121.0964 0001662  79.5196 280.5980 15.06396264 71363","TIME_SYSTEM":"UTC","MEAN_ANOMALY":"280.5980"},{"REF_FRAME":"TEME","RCS_SIZE":"LARGE","TLE_LINE1":"1 46123U 20057G   21325.72499675 -.00000784  00000-0 -33751-4 0  9996","RA_OF_ASC_NODE":"119.9754","MEAN_MOTION_DDOT":"0.0000000000000","OBJECT_NAME":"STARLINK-1605","REV_AT_EPOCH":"7080","LAUNCH_DATE":"2020-08-18","BSTAR":"-0.00003375100000","COUNTRY_CODE":"US","PERIOD":"95.592","MEAN_MOTION_DOT":"-0.00000784","APOAPSIS":"548.338","CENTER_NAME":"EARTH","OBJECT_TYPE":"PAYLOAD","INCLINATION":"53.0540","EPOCH":"2021-11-21T17:23:59.719200","TLE_LINE2":"2 46123  53.0540 119.9754 0001609  82.5851 277.5321 15.06396527 70802","MEAN_MOTION":"15.06396527","TIME_SYSTEM":"UTC","MEAN_ANOMALY":"277.5321","FILE":"3220726","ELEMENT_SET_NO":"999","NORAD_CAT_ID":"46123","GP_ID":"190206827","DECAY_DATE":null,"SEMIMAJOR_AXIS":"6925.359","MEAN_ELEMENT_THEORY":"SGP4","ECCENTRICITY":"0.00016090","PERIAPSIS":"546.110","EPHEMERIS_TYPE":"0","CLASSIFICATION_TYPE":"U","SITE":"AFETR","ARG_OF_PERICENTER":"82.5851","OBJECT_ID":"2020-057G"},{"PERIOD":"95.592","MEAN_MOTION_DOT":"0.00001035","APOAPSIS":"548.402","CENTER_NAME":"EARTH","OBJECT_TYPE":"PAYLOAD","INCLINATION":"53.0546","EPOCH":"2021-11-21T19:10:10.487136","MEAN_MOTION":"15.06400002","TLE_LINE2":"2 46124  53.0546 119.6508 0001716  76.9988 283.1192 15.06400002 70825","TIME_SYSTEM":"UTC","MEAN_ANOMALY":"283.1192","REF_FRAME":"TEME","RCS_SIZE":"LARGE","TLE_LINE1":"1 46124U 20057H   21325.79873249  .00001035  00000-0  88404-4 0  9990","RA_OF_ASC_NODE":"119.6508","MEAN_MOTION_DDOT":"0.0000000000000","OBJECT_NAME":"STARLINK-1614","REV_AT_EPOCH":"7082","LAUNCH_DATE":"2020-08-18","BSTAR":"0.00008840400000","COUNTRY_CODE":"US","PERIAPSIS":"546.025","EPHEMERIS_TYPE":"0","CLASSIFICATION_TYPE":"U","SITE":"AFETR","ARG_OF_PERICENTER":"76.9988","OBJECT_ID":"2020-057H","FILE":"3220715","ELEMENT_SET_NO":"999","NORAD_CAT_ID":"46124","GP_ID":"190206852","DECAY_DATE":null,"SEMIMAJOR_AXIS":"6925.349","MEAN_ELEMENT_THEORY":"SGP4","ECCENTRICITY":"0.00017160"},{"GP_ID":"190201547","NORAD_CAT_ID":"46125","ELEMENT_SET_NO":"999","FILE":"3220686","ECCENTRICITY":"0.00020170","MEAN_ELEMENT_THEORY":"SGP4","SEMIMAJOR_AXIS":"6925.373","DECAY_DATE":null,"CLASSIFICATION_TYPE":"U","EPHEMERIS_TYPE":"0","PERIAPSIS":"545.841","OBJECT_ID":"2020-057J","ARG_OF_PERICENTER":"76.0701","SITE":"AFETR","REV_AT_EPOCH":"7077","OBJECT_NAME":"STARLINK-1618","MEAN_MOTION_DDOT":"0.0000000000000","RA_OF_ASC_NODE":"162.1037","TLE_LINE1":"1 46125U 20057J   21325.24951309  .00001088  00000-0  91926-4 0  9996","RCS_SIZE":"LARGE","REF_FRAME":"TEME","COUNTRY_CODE":"US","BSTAR":"0.00009192600000","LAUNCH_DATE":"2020-08-18","OBJECT_TYPE":"PAYLOAD","INCLINATION":"53.0525","APOAPSIS":"548.635","CENTER_NAME":"EARTH","MEAN_MOTION_DOT":"0.00001088","PERIOD":"95.593","MEAN_ANOMALY":"284.0512","TIME_SYSTEM":"UTC","MEAN_MOTION":"15.06391930","TLE_LINE2":"2 46125  53.0525 162.1037 0002017  76.0701 284.0512 15.06391930 70771","EPOCH":"2021-11-21T05:59:17.930976"},{"NORAD_CAT_ID":"46126","GP_ID":"190206872","FILE":"3220716","ELEMENT_SET_NO":"999","SEMIMAJOR_AXIS":"6925.271","DECAY_DATE":null,"ECCENTRICITY":"0.00018730","MEAN_ELEMENT_THEORY":"SGP4","CLASSIFICATION_TYPE":"U","EPHEMERIS_TYPE":"0","PERIAPSIS":"545.839","ARG_OF_PERICENTER":"55.7574","OBJECT_ID":"2020-057K","SITE":"AFETR","RA_OF_ASC_NODE":"159.7330","REV_AT_EPOCH":"7025","MEAN_MOTION_DDOT":"0.0000000000000","OBJECT_NAME":"STARLINK-1619","RCS_SIZE":"LARGE","REF_FRAME":"TEME","TLE_LINE1":"1 46126U 20057K   21325.75448562  .00003106  00000-0  22721-3 0  9994","COUNTRY_CODE":"US","BSTAR":"0.00022721000000","LAUNCH_DATE":"2020-08-18","APOAPSIS":"548.433","CENTER_NAME":"EARTH","MEAN_MOTION_DOT":"0.00003106","OBJECT_TYPE":"PAYLOAD","INCLINATION":"53.0776","PERIOD":"95.591","TLE_LINE2":"2 46126  53.0776 159.7330 0001873  55.7574 304.3592 15.06425214 70259","MEAN_MOTION":"15.06425214","MEAN_ANOMALY":"304.3592","TIME_SYSTEM":"UTC","EPOCH":"2021-11-21T18:06:27.557568"}];
